[{"OBJECT_NAME":"HXMT (HUIYAN)","OBJECT_ID":"2017-034A","EPOCH":"2026-03-24T01:26:48.295680","MEAN_MOTION":15.17646455,"ECCENTRICITY":0.00325314,"INCLINATION":43.0145,"RA_OF_ASC_NODE":296.7682,"ARG_OF_PERICENTER":323.5333,"MEAN_ANOMALY":36.33,"EPHEMERIS_TYPE":0,"CLASSIFICATION_TYPE":"U","NORAD_CAT_ID":42758,"ELEMENT_SET_NO":999,"REV_AT_EPOCH":48472,"BSTAR":0.00028325215,"MEAN_MOTION_DOT":5.644e-5,"MEAN_MOTION_DDOT":0},{"OBJECT_NAME":"SAOCOM 1A","OBJECT_ID":"2018-076A","EPOCH":"2026-03-24T06:36:25.036128","MEAN_MOTION":14.821556,"ECCENTRICITY":0.00014602,"INCLINATION":97.8899,"RA_OF_ASC_NODE":271.2417,"ARG_OF_PERICENTER":87.9786,"MEAN_ANOMALY":272.1594,"EPHEMERIS_TYPE":0,"CLASSIFICATION_TYPE":"U","NORAD_CAT_ID":43641,"ELEMENT_SET_NO":999,"REV_AT_EPOCH":40352,"BSTAR":8.2456417e-5,"MEAN_MOTION_DOT":6.04e-6,"MEAN_MOTION_DDOT":0},{"OBJECT_NAME":"H-2A R/B","OBJECT_ID":"2018-084L","EPOCH":"2026-03-24T03:24:22.697568","MEAN_MOTION":15.4195212,"ECCENTRICITY":0.00241427,"INCLINATION":98.8707,"RA_OF_ASC_NODE":303.6244,"ARG_OF_PERICENTER":335.2715,"MEAN_ANOMALY":24.7369,"EPHEMERIS_TYPE":0,"CLASSIFICATION_TYPE":"U","NORAD_CAT_ID":43682,"ELEMENT_SET_NO":999,"REV_AT_EPOCH":40800,"BSTAR":0.0004259856,"MEAN_MOTION_DOT":0.00018225,"MEAN_MOTION_DDOT":0},{"OBJECT_NAME":"SAOCOM 1B","OBJECT_ID":"2020-059A","EPOCH":"2026-03-24T07:21:22.781088","MEAN_MOTION":14.82150304,"ECCENTRICITY":0.00015192,"INCLINATION":97.89,"RA_OF_ASC_NODE":270.3705,"ARG_OF_PERICENTER":85.9378,"MEAN_ANOMALY":274.2008,"EPHEMERIS_TYPE":0,"CLASSIFICATION_TYPE":"U","NORAD_CAT_ID":46265,"ELEMENT_SET_NO":999,"REV_AT_EPOCH":30091,"BSTAR":1.1242543e-5,"MEAN_MOTION_DOT":3.7e-7,"MEAN_MOTION_DDOT":0},{"OBJECT_NAME":"CSS (TIANHE)","OBJECT_ID":"2021-035A","EPOCH":"2026-03-24T05:42:53.103168","MEAN_MOTION":15.61417953,"ECCENTRICITY":0.0004823,"INCLINATION":41.4662,"RA_OF_ASC_NODE":119.5892,"ARG_OF_PERICENTER":8.9107,"MEAN_ANOMALY":351.1817,"EPHEMERIS_TYPE":0,"CLASSIFICATION_TYPE":"U","NORAD_CAT_ID":48274,"ELEMENT_SET_NO":999,"REV_AT_EPOCH":27988,"BSTAR":0.00023638183,"MEAN_MOTION_DOT":0.00020484,"MEAN_MOTION_DDOT":0},{"OBJECT_NAME":"COSMOS 2550","OBJECT_ID":"2021-056A","EPOCH":"2026-03-20T16:01:39.961632","MEAN_MOTION":15.33831865,"ECCENTRICITY":0.00082001,"INCLINATION":67.1449,"RA_OF_ASC_NODE":7.6743,"ARG_OF_PERICENTER":268.9234,"MEAN_ANOMALY":91.0981,"EPHEMERIS_TYPE":0,"CLASSIFICATION_TYPE":"U","NORAD_CAT_ID":48865,"ELEMENT_SET_NO":999,"REV_AT_EPOCH":26514,"BSTAR":1.25398e-7,"MEAN_MOTION_DOT":-1.88e-6,"MEAN_MOTION_DDOT":0},{"OBJECT_NAME":"CZ-2C R/B","OBJECT_ID":"2022-058K","EPOCH":"2026-03-24T03:59:05.689248","MEAN_MOTION":15.55264976,"ECCENTRICITY":0.00416351,"INCLINATION":50.1878,"RA_OF_ASC_NODE":243.7627,"ARG_OF_PERICENTER":262.6993,"MEAN_ANOMALY":96.9245,"EPHEMERIS_TYPE":0,"CLASSIFICATION_TYPE":"U","NORAD_CAT_ID":52794,"ELEMENT_SET_NO":999,"REV_AT_EPOCH":21238,"BSTAR":0.00043415476,"MEAN_MOTION_DOT":0.00030792,"MEAN_MOTION_DDOT":0},{"OBJECT_NAME":"CZ-2C R/B","OBJECT_ID":"2022-132E","EPOCH":"2026-03-23T23:21:41.941440","MEAN_MOTION":15.63169879,"ECCENTRICITY":0.00187086,"INCLINATION":97.2964,"RA_OF_ASC_NODE":86.738,"ARG_OF_PERICENTER":45.7338,"MEAN_ANOMALY":314.5452,"EPHEMERIS_TYPE":0,"CLASSIFICATION_TYPE":"U","NORAD_CAT_ID":54039,"ELEMENT_SET_NO":999,"REV_AT_EPOCH":19260,"BSTAR":0.00050219048,"MEAN_MOTION_DOT":0.0004629,"MEAN_MOTION_DDOT":0},{"OBJECT_NAME":"GSLV R/B","OBJECT_ID":"2022-138AN","EPOCH":"2026-03-24T05:28:19.686432","MEAN_MOTION":14.96868932,"ECCENTRICITY":0.00241091,"INCLINATION":87.3867,"RA_OF_ASC_NODE":161.496,"ARG_OF_PERICENTER":98.4757,"MEAN_ANOMALY":261.9208,"EPHEMERIS_TYPE":0,"CLASSIFICATION_TYPE":"U","NORAD_CAT_ID":54149,"ELEMENT_SET_NO":999,"REV_AT_EPOCH":18610,"BSTAR":0.0002977258,"MEAN_MOTION_DOT":3.461e-5,"MEAN_MOTION_DDOT":0},{"OBJECT_NAME":"XRISM","OBJECT_ID":"2023-137A","EPOCH":"2026-03-23T23:16:39.231264","MEAN_MOTION":15.11658756,"ECCENTRICITY":0.00079496,"INCLINATION":31.0011,"RA_OF_ASC_NODE":191.2852,"ARG_OF_PERICENTER":183.2958,"MEAN_ANOMALY":176.7629,"EPHEMERIS_TYPE":0,"CLASSIFICATION_TYPE":"U","NORAD_CAT_ID":57800,"ELEMENT_SET_NO":999,"REV_AT_EPOCH":13995,"BSTAR":0.00033946295,"MEAN_MOTION_DOT":6.019e-5,"MEAN_MOTION_DDOT":0},{"OBJECT_NAME":"ACS3","OBJECT_ID":"2024-077B","EPOCH":"2026-03-24T02:40:20.313408","MEAN_MOTION":13.90240183,"ECCENTRICITY":0.00704967,"INCLINATION":97.1997,"RA_OF_ASC_NODE":20.9824,"ARG_OF_PERICENTER":43.0107,"MEAN_ANOMALY":317.6538,"EPHEMERIS_TYPE":0,"CLASSIFICATION_TYPE":"U","NORAD_CAT_ID":59588,"ELEMENT_SET_NO":999,"REV_AT_EPOCH":9620,"BSTAR":0.014397859,"MEAN_MOTION_DOT":0.00018196,"MEAN_MOTION_DDOT":0},{"OBJECT_NAME":"SZ-21 MODULE","OBJECT_ID":"2025-246C","EPOCH":"2026-03-23T04:26:13.491168","MEAN_MOTION":15.69572241,"ECCENTRICITY":6.541e-5,"INCLINATION":41.4734,"RA_OF_ASC_NODE":120.2206,"ARG_OF_PERICENTER":218.7155,"MEAN_ANOMALY":141.364,"EPHEMERIS_TYPE":0,"CLASSIFICATION_TYPE":"U","NORAD_CAT_ID":66515,"ELEMENT_SET_NO":999,"REV_AT_EPOCH":2019,"BSTAR":0.00035990835,"MEAN_MOTION_DOT":0.00043706,"MEAN_MOTION_DDOT":0}]
